{
  "type": "FeatureCollection",
  "features": [
    {
      "type": "Feature",
      "properties": {
        "norad_id": 43719,
        "name": "HYSIS",
        "group": "resource",
        "lat": -38.20326496071461,
        "lon": -145.1856007816409,
        "alt_km": 641.1798132094109,
        "timestamp": "2025-12-04T03:47:54.211441+00:00",
        "meta_object_name": "HYSIS",
        "meta_object_id": "2018-096A",
        "meta_epoch": "2025-12-03T23:33:53.273376",
        "meta_mean_motion": 14.78603565,
        "meta_eccentricity": 0.0001622,
        "meta_inclination": 98.0109,
        "meta_ra_of_asc_node": 41.0023,
        "meta_arg_of_pericenter": 67.6656,
        "meta_mean_anomaly": 292.4727,
        "meta_ephemeris_type": 0,
        "meta_classification_type": "U",
        "meta_norad_cat_id": 43719,
        "meta_element_set_no": 999,
        "meta_rev_at_epoch": 37857,
        "meta_bstar": 3.456e-05,
        "meta_mean_motion_dot": 2.01e-06,
        "meta_mean_motion_ddot": 0,
        "tle_line1": "1 43719U 18096A   25337.98186659  .00000201  00000+0  34560-4 0  9994",
        "tle_line2": "2 43719  98.0109  41.0023 0001622  67.6656 292.4727 14.78603565378578"
      },
      "geometry": {
        "type": "Point",
        "coordinates": [
          -145.1856007816409,
          -38.20326496071461
        ]
      }
    },
    {
      "type": "Feature",
      "properties": {
        "norad_id": 43783,
        "name": "KAZSTSAT",
        "group": "resource",
        "lat": 3.4343488056551035,
        "lon": -165.83748377890507,
        "alt_km": 576.1497014603938,
        "timestamp": "2025-12-04T03:47:54.211469+00:00",
        "meta_object_name": "KAZSTSAT",
        "meta_object_id": "2018-099AB",
        "meta_epoch": "2025-12-03T14:12:00.344160",
        "meta_mean_motion": 14.99301912,
        "meta_eccentricity": 0.0006518,
        "meta_inclination": 97.4553,
        "meta_ra_of_asc_node": 13.17,
        "meta_arg_of_pericenter": 4.0766,
        "meta_mean_anomaly": 356.051,
        "meta_ephemeris_type": 0,
        "meta_classification_type": "U",
        "meta_norad_cat_id": 43783,
        "meta_element_set_no": 999,
        "meta_rev_at_epoch": 38199,
        "meta_bstar": 0.00023639,
        "meta_mean_motion_dot": 2.832e-05,
        "meta_mean_motion_ddot": 0,
        "tle_line1": "1 43783U 18099AB  25337.59167065  .00002832  00000+0  23639-3 0  9991",
        "tle_line2": "2 43783  97.4553  13.1700 0006518   4.0766 356.0510 14.99301912381994"
      },
      "geometry": {
        "type": "Point",
        "coordinates": [
          -165.83748377890507,
          3.4343488056551035
        ]
      }
    },
    {
      "type": "Feature",
      "properties": {
        "norad_id": 43831,
        "name": "SAUDISAT 5A",
        "group": "resource",
        "lat": 39.785041175922316,
        "lon": -135.32420007057547,
        "alt_km": 479.8830198531268,
        "timestamp": "2025-12-04T03:47:54.211481+00:00",
        "meta_object_name": "SAUDISAT 5A",
        "meta_object_id": "2018-102A",
        "meta_epoch": "2025-12-03T20:53:30.067296",
        "meta_mean_motion": 15.25480522,
        "meta_eccentricity": 0.0011795,
        "meta_inclination": 97.3372,
        "meta_ra_of_asc_node": 38.2339,
        "meta_arg_of_pericenter": 103.3867,
        "meta_mean_anomaly": 256.8687,
        "meta_ephemeris_type": 0,
        "meta_classification_type": "U",
        "meta_norad_cat_id": 43831,
        "meta_element_set_no": 999,
        "meta_rev_at_epoch": 38587,
        "meta_bstar": 0.00042362,
        "meta_mean_motion_dot": 0.00010679,
        "meta_mean_motion_ddot": 0,
        "tle_line1": "1 43831U 18102A   25337.87048689  .00010679  00000+0  42362-3 0  9993",
        "tle_line2": "2 43831  97.3372  38.2339 0011795 103.3867 256.8687 15.25480522385878"
      },
      "geometry": {
        "type": "Point",
        "coordinates": [
          -135.32420007057547,
          39.785041175922316
        ]
      }
    },
    {
      "type": "Feature",
      "properties": {
        "norad_id": 43833,
        "name": "SAUDISAT 5B",
        "group": "resource",
        "lat": -1.195750223204568,
        "lon": -138.9150219055654,
        "alt_km": 489.44936392183445,
        "timestamp": "2025-12-04T03:47:54.211493+00:00",
        "meta_object_name": "SAUDISAT 5B",
        "meta_object_id": "2018-102C",
        "meta_epoch": "2025-12-03T20:42:46.054656",
        "meta_mean_motion": 15.25837548,
        "meta_eccentricity": 0.001248,
        "meta_inclination": 97.3467,
        "meta_ra_of_asc_node": 40.9492,
        "meta_arg_of_pericenter": 105.9488,
        "meta_mean_anomaly": 254.3126,
        "meta_ephemeris_type": 0,
        "meta_classification_type": "U",
        "meta_norad_cat_id": 43833,
        "meta_element_set_no": 999,
        "meta_rev_at_epoch": 38598,
        "meta_bstar": 0.00040911,
        "meta_mean_motion_dot": 0.00010424,
        "meta_mean_motion_ddot": 0,
        "tle_line1": "1 43833U 18102C   25337.86303304  .00010424  00000+0  40911-3 0  9998",
        "tle_line2": "2 43833  97.3467  40.9492 0012480 105.9488 254.3126 15.25837548385981"
      },
      "geometry": {
        "type": "Point",
        "coordinates": [
          -138.9150219055654,
          -1.195750223204568
        ]
      }
    },
    {
      "type": "Feature",
      "properties": {
        "norad_id": 44622,
        "name": "GAOFEN-10R",
        "group": "resource",
        "lat": 14.798772176736467,
        "lon": -76.50446842320542,
        "alt_km": 617.891411557548,
        "timestamp": "2025-12-04T03:47:54.211507+00:00",
        "meta_object_name": "GAOFEN-10R",
        "meta_object_id": "2019-066A",
        "meta_epoch": "2025-12-03T21:15:10.072800",
        "meta_mean_motion": 14.82740651,
        "meta_eccentricity": 0.0008225,
        "meta_inclination": 98.0263,
        "meta_ra_of_asc_node": 285.3582,
        "meta_arg_of_pericenter": 66.0564,
        "meta_mean_anomaly": 294.1509,
        "meta_ephemeris_type": 0,
        "meta_classification_type": "U",
        "meta_norad_cat_id": 44622,
        "meta_element_set_no": 999,
        "meta_rev_at_epoch": 33343,
        "meta_bstar": 0.00038009,
        "meta_mean_motion_dot": 3.017e-05,
        "meta_mean_motion_ddot": 0,
        "tle_line1": "1 44622U 19066A   25337.88553325  .00003017  00000+0  38009-3 0  9992",
        "tle_line2": "2 44622  98.0263 285.3582 0008225  66.0564 294.1509 14.82740651333439"
      },
      "geometry": {
        "type": "Point",
        "coordinates": [
          -76.50446842320542,
          14.798772176736467
        ]
      }
    },
    {
      "type": "Feature",
      "properties": {
        "norad_id": 44804,
        "name": "CARTOSAT-3",
        "group": "resource",
        "lat": 46.981561991013415,
        "lon": -134.07771044815036,
        "alt_km": 494.95491084309924,
        "timestamp": "2025-12-04T03:47:54.211518+00:00",
        "meta_object_name": "CARTOSAT-3",
        "meta_object_id": "2019-081A",
        "meta_epoch": "2025-12-03T22:28:34.179744",
        "meta_mean_motion": 15.19248003,
        "meta_eccentricity": 0.0013863,
        "meta_inclination": 97.46,
        "meta_ra_of_asc_node": 37.6308,
        "meta_arg_of_pericenter": 114.768,
        "meta_mean_anomaly": 245.4999,
        "meta_ephemeris_type": 0,
        "meta_classification_type": "U",
        "meta_norad_cat_id": 44804,
        "meta_element_set_no": 999,
        "meta_rev_at_epoch": 33382,
        "meta_bstar": 0.00028552,
        "meta_mean_motion_dot": 5.964e-05,
        "meta_mean_motion_ddot": 0,
        "tle_line1": "1 44804U 19081A   25337.93650671  .00005964  00000+0  28552-3 0  9994",
        "tle_line2": "2 44804  97.4600  37.6308 0013863 114.7680 245.4999 15.19248003333827"
      },
      "geometry": {
        "type": "Point",
        "coordinates": [
          -134.07771044815036,
          46.981561991013415
        ]
      }
    },
    {
      "type": "Feature",
      "properties": {
        "norad_id": 44819,
        "name": "GAOFEN-12 01",
        "group": "resource",
        "lat": -12.295810384078592,
        "lon": -13.62052261419885,
        "alt_km": 631.2612294528453,
        "timestamp": "2025-12-04T03:47:54.211528+00:00",
        "meta_object_name": "GAOFEN-12 01",
        "meta_object_id": "2019-082A",
        "meta_epoch": "2025-12-03T21:22:00.006240",
        "meta_mean_motion": 14.80640325,
        "meta_eccentricity": 0.0001253,
        "meta_inclination": 97.8128,
        "meta_ra_of_asc_node": 344.4036,
        "meta_arg_of_pericenter": 294.6524,
        "meta_mean_anomaly": 65.4558,
        "meta_ephemeris_type": 0,
        "meta_classification_type": "U",
        "meta_norad_cat_id": 44819,
        "meta_element_set_no": 999,
        "meta_rev_at_epoch": 32519,
        "meta_bstar": 0.00011307,
        "meta_mean_motion_dot": 8.17e-06,
        "meta_mean_motion_ddot": 0,
        "tle_line1": "1 44819U 19082A   25337.89027785  .00000817  00000+0  11307-3 0  9992",
        "tle_line2": "2 44819  97.8128 344.4036 0001253 294.6524  65.4558 14.80640325325196"
      },
      "geometry": {
        "type": "Point",
        "coordinates": [
          -13.62052261419885,
          -12.295810384078592
        ]
      }
    }
  ]
}